{
  "type": "FeatureCollection",
  "features": [
    {
      "type": "Feature",
      "properties": {
        "norad_id": 44334,
        "name": "EUTELSAT 7C",
        "group": "eutelsat",
        "lat": -0.03245487246616708,
        "lon": 57.50450951687009,
        "alt_km": 35798.906443978136,
        "timestamp": "2025-12-16T21:38:56.841840+00:00",
        "meta_object_name": "EUTELSAT 7C",
        "meta_object_id": "2019-034B",
        "meta_epoch": "2025-12-16T06:32:32.017056",
        "meta_mean_motion": 1.00271438,
        "meta_eccentricity": 0.00030713,
        "meta_inclination": 0.0724,
        "meta_ra_of_asc_node": 177.2222,
        "meta_arg_of_pericenter": 71.2074,
        "meta_mean_anomaly": 301.8567,
        "meta_ephemeris_type": 0,
        "meta_classification_type": "U",
        "meta_norad_cat_id": 44334,
        "meta_element_set_no": 999,
        "meta_rev_at_epoch": 500,
        "meta_bstar": 0,
        "meta_mean_motion_dot": 7.2e-07,
        "meta_mean_motion_ddot": 0,
        "tle_line1": "1 44334U 19034B   25350.27259279  .00000072  00000+0  00000+0 0  9990",
        "tle_line2": "2 44334   0.0724 177.2222 0003071  71.2074 301.8567  1.00271438  5009"
      },
      "geometry": {
        "type": "Point",
        "coordinates": [
          57.50450951687009,
          -0.03245487246616708
        ]
      }
    },
    {
      "type": "Feature",
      "properties": {
        "norad_id": 44624,
        "name": "EUTELSAT 5 WEST B",
        "group": "eutelsat",
        "lat": 0.09314753663477861,
        "lon": 45.54665847324538,
        "alt_km": 35796.075480017505,
        "timestamp": "2025-12-16T21:38:56.841851+00:00",
        "meta_object_name": "EUTELSAT 5 WEST B",
        "meta_object_id": "2019-067A",
        "meta_epoch": "2025-12-16T06:29:02.351904",
        "meta_mean_motion": 1.00273387,
        "meta_eccentricity": 0.00032198,
        "meta_inclination": 0.0722,
        "meta_ra_of_asc_node": 327.4568,
        "meta_arg_of_pericenter": 297.9911,
        "meta_mean_anomaly": 271.9836,
        "meta_ephemeris_type": 0,
        "meta_classification_type": "U",
        "meta_norad_cat_id": 44624,
        "meta_element_set_no": 999,
        "meta_rev_at_epoch": 2260,
        "meta_bstar": 0,
        "meta_mean_motion_dot": -1.8e-07,
        "meta_mean_motion_ddot": 0,
        "tle_line1": "1 44624U 19067A   25350.27016611 -.00000018  00000+0  00000+0 0  9990",
        "tle_line2": "2 44624   0.0722 327.4568 0003219 297.9911 271.9836  1.00273387 22608"
      },
      "geometry": {
        "type": "Point",
        "coordinates": [
          45.54665847324538,
          0.09314753663477861
        ]
      }
    },
    {
      "type": "Feature",
      "properties": {
        "norad_id": 45027,
        "name": "EUTELSAT KONNECT",
        "group": "eutelsat",
        "lat": -0.015783044314569155,
        "lon": 57.717538739676115,
        "alt_km": 35790.04337913749,
        "timestamp": "2025-12-16T21:38:56.841863+00:00",
        "meta_object_name": "EUTELSAT KONNECT",
        "meta_object_id": "2020-005B",
        "meta_epoch": "2025-12-16T06:32:32.017056",
        "meta_mean_motion": 1.00270669,
        "meta_eccentricity": 0.000134,
        "meta_inclination": 0.0724,
        "meta_ra_of_asc_node": 96.2196,
        "meta_arg_of_pericenter": 191.0453,
        "meta_mean_anomaly": 263.2312,
        "meta_ephemeris_type": 0,
        "meta_classification_type": "U",
        "meta_norad_cat_id": 45027,
        "meta_element_set_no": 999,
        "meta_rev_at_epoch": 2250,
        "meta_bstar": 0,
        "meta_mean_motion_dot": 7.3e-07,
        "meta_mean_motion_ddot": 0,
        "tle_line1": "1 45027U 20005B   25350.27259279  .00000073  00000+0  00000+0 0  9991",
        "tle_line2": "2 45027   0.0724  96.2196 0001340 191.0453 263.2312  1.00270669 22506"
      },
      "geometry": {
        "type": "Point",
        "coordinates": [
          57.717538739676115,
          -0.015783044314569155
        ]
      }
    },
    {
      "type": "Feature",
      "properties": {
        "norad_id": 49056,
        "name": "EUTELSAT QUANTUM",
        "group": "eutelsat",
        "lat": 0.033893161354981036,
        "lon": 98.23165632325072,
        "alt_km": 35800.658518263015,
        "timestamp": "2025-12-16T21:38:56.841874+00:00",
        "meta_object_name": "EUTELSAT QUANTUM",
        "meta_object_id": "2021-069B",
        "meta_epoch": "2025-12-16T05:01:25.743072",
        "meta_mean_motion": 1.00273361,
        "meta_eccentricity": 0.00035684,
        "meta_inclination": 0.0119,
        "meta_ra_of_asc_node": 4.6507,
        "meta_arg_of_pericenter": 273.0909,
        "meta_mean_anomaly": 290.4357,
        "meta_ephemeris_type": 0,
        "meta_classification_type": "U",
        "meta_norad_cat_id": 49056,
        "meta_element_set_no": 999,
        "meta_rev_at_epoch": 1609,
        "meta_bstar": 0,
        "meta_mean_motion_dot": 1.49e-06,
        "meta_mean_motion_ddot": 0,
        "tle_line1": "1 49056U 21069B   25350.20932573  .00000149  00000+0  00000+0 0  9990",
        "tle_line2": "2 49056   0.0119   4.6507 0003568 273.0909 290.4357  1.00273361 16090"
      },
      "geometry": {
        "type": "Point",
        "coordinates": [
          98.23165632325072,
          0.033893161354981036
        ]
      }
    },
    {
      "type": "Feature",
      "properties": {
        "norad_id": 53765,
        "name": "EUTELSAT KONNECT VHTS",
        "group": "eutelsat",
        "lat": -0.017034948753367512,
        "lon": 53.25235494227943,
        "alt_km": 35796.14600710755,
        "timestamp": "2025-12-16T21:38:56.841887+00:00",
        "meta_object_name": "EUTELSAT KONNECT VHTS",
        "meta_object_id": "2022-110A",
        "meta_epoch": "2025-12-16T06:31:17.136768",
        "meta_mean_motion": 1.00270918,
        "meta_eccentricity": 0.00023634,
        "meta_inclination": 0.0637,
        "meta_ra_of_asc_node": 101.8947,
        "meta_arg_of_pericenter": 141.2123,
        "meta_mean_anomaly": 302.6175,
        "meta_ephemeris_type": 0,
        "meta_classification_type": "U",
        "meta_norad_cat_id": 53765,
        "meta_element_set_no": 999,
        "meta_rev_at_epoch": 499,
        "meta_bstar": 0,
        "meta_mean_motion_dot": 4.1e-07,
        "meta_mean_motion_ddot": 0,
        "tle_line1": "1 53765U 22110A   25350.27172612  .00000041  00000+0  00000+0 0  9998",
        "tle_line2": "2 53765   0.0637 101.8947 0002363 141.2123 302.6175  1.00270918  4996"
      },
      "geometry": {
        "type": "Point",
        "coordinates": [
          53.25235494227943,
          -0.017034948753367512
        ]
      }
    },
    {
      "type": "Feature",
      "properties": {
        "norad_id": 54048,
        "name": "EUTELSAT HOTBIRD 13F",
        "group": "eutelsat",
        "lat": 0.05538333401547381,
        "lon": 63.527780043542144,
        "alt_km": 35781.280700948526,
        "timestamp": "2025-12-16T21:38:56.841898+00:00",
        "meta_object_name": "EUTELSAT HOTBIRD 13F",
        "meta_object_id": "2022-134A",
        "meta_epoch": "2025-12-14T22:02:26.653056",
        "meta_mean_motion": 1.0027139,
        "meta_eccentricity": 0.00023413,
        "meta_inclination": 0.0492,
        "meta_ra_of_asc_node": 293.4772,
        "meta_arg_of_pericenter": 68.5165,
        "meta_mean_anomaly": 65.4415,
        "meta_ephemeris_type": 0,
        "meta_classification_type": "U",
        "meta_norad_cat_id": 54048,
        "meta_element_set_no": 999,
        "meta_rev_at_epoch": 1152,
        "meta_bstar": 0,
        "meta_mean_motion_dot": 1.07e-06,
        "meta_mean_motion_ddot": 0,
        "tle_line1": "1 54048U 22134A   25348.91836404  .00000107  00000+0  00000+0 0  9996",
        "tle_line2": "2 54048   0.0492 293.4772 0002341  68.5165  65.4415  1.00271390 11520"
      },
      "geometry": {
        "type": "Point",
        "coordinates": [
          63.527780043542144,
          0.05538333401547381
        ]
      }
    },
    {
      "type": "Feature",
      "properties": {
        "norad_id": 54225,
        "name": "EUTELSAT HOTBIRD 13G",
        "group": "eutelsat",
        "lat": 0.01873825095423853,
        "lon": 63.48733334432294,
        "alt_km": 35788.46245245413,
        "timestamp": "2025-12-16T21:38:56.841910+00:00",
        "meta_object_name": "EUTELSAT HOTBIRD 13G",
        "meta_object_id": "2022-146A",
        "meta_epoch": "2025-12-15T18:35:09.269376",
        "meta_mean_motion": 1.00272541,
        "meta_eccentricity": 0.0001793,
        "meta_inclination": 0.0499,
        "meta_ra_of_asc_node": 235.66,
        "meta_arg_of_pericenter": 298.8114,
        "meta_mean_anomaly": 201.9832,
        "meta_ephemeris_type": 0,
        "meta_classification_type": "U",
        "meta_norad_cat_id": 54225,
        "meta_element_set_no": 999,
        "meta_rev_at_epoch": 562,
        "meta_bstar": 0,
        "meta_mean_motion_dot": 1.1e-06,
        "meta_mean_motion_ddot": 0,
        "tle_line1": "1 54225U 22146A   25349.77441284  .00000110  00000+0  00000+0 0  9993",
        "tle_line2": "2 54225   0.0499 235.6600 0001793 298.8114 201.9832  1.00272541  5627"
      },
      "geometry": {
        "type": "Point",
        "coordinates": [
          63.48733334432294,
          0.01873825095423853
        ]
      }
    }
  ]
}